{
    "links": {
        "self": "http://www.neowsapp.com/rest/v1/neo/54017136?api_key=iIulBulltgU6a56xZRHN4H3l9WmuAYTsLGpBGhQ2"
    },
    "id": "54017136",
    "neo_reference_id": "54017136",
    "name": "(2020 KA2)",
    "designation": "2020 KA2",
    "nasa_jpl_url": "http://ssd.jpl.nasa.gov/sbdb.cgi?sstr=54017136",
    "absolute_magnitude_h": 22.704,
    "estimated_diameter": {
        "kilometers": {
            "estimated_diameter_min": 0.0765164789,
            "estimated_diameter_max": 0.1710960482
        },
        "meters": {
            "estimated_diameter_min": 76.516478892,
            "estimated_diameter_max": 171.0960482014
        },
        "miles": {
            "estimated_diameter_min": 0.047545121,
            "estimated_diameter_max": 0.1063141226
        },
        "feet": {
            "estimated_diameter_min": 251.038324608,
            "estimated_diameter_max": 561.3387587812
        }
    },
    "is_potentially_hazardous_asteroid": false,
    "close_approach_data": [
        {
            "close_approach_date": "2020-05-31",
            "close_approach_date_full": "2020-May-31 11:50",
            "epoch_date_close_approach": 1590925800000,
            "relative_velocity": {
                "kilometers_per_second": "19.3625564166",
                "kilometers_per_hour": "69705.2030995984",
                "miles_per_hour": "43312.1024481921"
            },
            "miss_distance": {
                "astronomical": "0.2535542815",
                "lunar": "98.6326155035",
                "kilometers": "37931180.441780405",
                "miles": "23569342.601583389"
            },
            "orbiting_body": "Earth"
        },
        {
            "close_approach_date": "2036-05-30",
            "close_approach_date_full": "2036-May-30 03:00",
            "epoch_date_close_approach": 2095729200000,
            "relative_velocity": {
                "kilometers_per_second": "18.724065075",
                "kilometers_per_hour": "67406.6342699197",
                "miles_per_hour": "41883.8611662176"
            },
            "miss_distance": {
                "astronomical": "0.2684579251",
                "lunar": "104.4301328639",
                "kilometers": "40160733.779579537",
                "miles": "24954722.8047581306"
            },
            "orbiting_body": "Earth"
        }
    ],
    "orbital_data": {
        "orbit_id": "4",
        "orbit_determination_date": "2020-09-11 07:47:59",
        "first_observation_date": "2020-05-15",
        "last_observation_date": "2020-06-09",
        "data_arc_in_days": 25,
        "observations_used": 38,
        "orbit_uncertainty": "7",
        "minimum_orbit_intersection": ".247718",
        "jupiter_tisserand_invariant": "3.880",
        "epoch_osculation": "2459000.5",
        "eccentricity": ".3050846149190835",
        "semi_major_axis": "1.733263419017424",
        "inclination": "36.95846283959155",
        "ascending_node_longitude": "73.54922257618919",
        "orbital_period": "833.4801931372788",
        "perihelion_distance": "1.204471416273159",
        "perihelion_argument": "141.0529229405756",
        "aphelion_distance": "2.262055421761689",
        "perihelion_time": "2458962.823206799572",
        "mean_anomaly": "16.27350675377118",
        "mean_motion": ".4319238812921689",
        "equinox": "J2000",
        "orbit_class": {
            "orbit_class_type": "AMO",
            "orbit_class_description": "Near-Earth asteroid orbits similar to that of 1221 Amor",
            "orbit_class_range": "1.017 AU < q (perihelion) < 1.3 AU"
        }
    },
    "is_sentry_object": false
}